STARLINK-35750          
1 66209U 25244D   26164.67562987  .00026569  00000+0  79502-3 0  9992
2 66209  53.1603 143.4859 0001396  90.5199 269.5964 15.34387339 36364
STARLINK-35740          
1 66210U 25244E   26164.66300584  .00018684  00000+0  56277-3 0  9999
2 66210  53.1567 143.4044 0001255  91.5943 268.5203 15.34397589 36366
STARLINK-35723          
1 66211U 25244F   26164.22598699  .00024886  00000+0  74504-3 0  9992
2 66211  53.1584 145.6550 0000954 108.0555 252.0552 15.34407928 36285
STARLINK-35710          
1 66212U 25244G   26164.23197806  .00019094  00000+0  65501-3 0  9991
2 66212  53.1575 146.4005 0001085  86.5535 273.5590 15.30205447 36282
STARLINK-34204          
1 66213U 25244H   26164.24136227  .00013555  00000+0  46892-3 0  9991
2 66213  53.1561 145.7503 0001246  96.4803 263.6339 15.30202111 36297
STARLINK-35714          
1 66214U 25244J   26164.24042620 -.00001342  00000+0 -33214-4 0  9993
2 66214  53.1569 146.4526 0001366  85.7637 274.3520 15.30181322 36288
STARLINK-35712          
1 66215U 25244K   26164.64486058  .00015770  00000+0  54346-3 0  9991
2 66215  53.1584 143.9925 0001756  70.8146 289.3044 15.30198697 36352
STARLINK-35709          
1 66216U 25244L   26164.67862959  .00014752  00000+0  50921-3 0  9997
2 66216  53.1572 144.2083 0001462  94.9812 265.1355 15.30200270 36358
STARLINK-35700          
1 66217U 25244M   26164.67229637  .00011839  00000+0  41114-3 0  9995
2 66217  53.1582 144.1724 0001185  76.7088 283.4045 15.30204464 36343
STARLINK-35722          
1 66218U 25244N   26164.67142354  .00027659  00000+0  82683-3 0  9999
2 66218  53.1582 143.4523 0001363  97.0624 263.0533 15.34395695 36362
STARLINK-35737          
1 66219U 25244P   26164.22809069  .00025131  00000+0  75225-3 0  9991
2 66219  53.1584 145.6641 0001180  97.6800 262.4337 15.34407938 36290
STARLINK-35677          
1 66220U 25244Q   26164.66932328  .00029834  00000+0  88994-3 0  9997
2 66220  53.1596 143.4411 0001332  92.0588 268.0567 15.34423632 36361
STARLINK-35704          
1 66221U 25244R   26164.67018303  .00019511  00000+0  66882-3 0  9990
2 66221  53.1588 144.1555 0001508  98.7204 261.3968 15.30214889 36351
STARLINK-35666          
1 66222U 25244S   26164.67335144  .00018997  00000+0  65192-3 0  9996
2 66222  53.1581 144.1726 0001242  92.1279 267.9864 15.30198645 36358
STARLINK-35664          
1 66223U 25244T   26164.67968285  .00016908  00000+0  58167-3 0  9999
2 66223  53.1580 144.2120 0001504  92.1921 267.9251 15.30201775 36351
STARLINK-35733          
1 66224U 25244U   26164.23620249  .00016953  00000+0  58301-3 0  9997
2 66224  53.1572 146.4199 0001139  84.0292 276.0838 15.30211434 36285
STARLINK-35734          
1 66225U 25244V   26164.67651791  .00021197  00000+0  72577-3 0  9999
2 66225  53.1577 144.1912 0001638 100.4702 259.6484 15.30199241 36355
STARLINK-34466          
1 66226U 25244W   26164.67352557  .00026790  00000+0  80122-3 0  9997
2 66226  53.1599 143.4669 0001451  89.8567 270.2602 15.34399416 36365
STARLINK-34882          
1 66227U 25244X   26164.23019560  .00033174  00000+0  98835-3 0  9998
2 66227  53.1576 145.6732 0001379  20.0064 340.0993 15.34408867 36296
STARLINK-35731          
1 66228U 25244Y   26164.66510904  .00024344  00000+0  72916-3 0  9995
2 66228  53.1597 143.4137 0001447  91.0401 269.0767 15.34405489 36368
STARLINK-35758          
1 66229U 25244Z   26164.22177959  .00021881  00000+0  65675-3 0  9994
2 66229  53.1593 145.6224 0001090  72.3341 287.7781 15.34404675 36296
STARLINK-35736          
1 66230U 25244AA  26164.66912808  .00023024  00000+0  78631-3 0  9991
2 66230  53.1596 144.1467 0001443  55.2666 304.8471 15.30232313 36354
STARLINK-35735          
1 66231U 25244AB  26163.66619266  .00024418  00000+0  83365-3 0  9991
2 66231  53.1557 148.5505 0001634  90.2946 269.8242 15.30207398 36200
STARLINK-35753          
1 66232U 25244AC  26164.23830642  .00013030  00000+0  45119-3 0  9992
2 66232  53.1564 146.4340 0001194  87.9556 272.1581 15.30207396 36283
STARLINK-35626          
1 66233U 25244AD  26164.23515774  .00016180  00000+0  55687-3 0  9999
2 66233  53.1568 146.4114 0001815  84.0153 276.1054 15.30220261 36283
STARLINK-35537          
1 66234U 25245A   26164.81654779  .00015704  00000+0  51651-3 0  9992
2 66234  53.1583 196.7172 0000965  55.4283 304.6809 15.31714199 35984
STARLINK-35541          
1 66235U 25245B   26164.79625455  .00009984  00000+0  34873-3 0  9999
2 66235  53.1575 197.2904 0001452  66.8444 293.2710 15.30202799 35927
STARLINK-35454          
1 66236U 25245C   26164.56981017  .00023573  00000+0  80573-3 0  9992
2 66236  53.1574 198.7262 0001419  99.7833 260.3328 15.30189846 35770
STARLINK-35557          
1 66237U 25245D   26164.56262612  .00024099  00000+0  72259-3 0  9992
2 66237  53.1576 196.5528 0001398  89.2589 270.8574 15.34377937 35966
STARLINK-35556          
1 66238U 25245E   26164.56476219  .00025732  00000+0  77101-3 0  9999
2 66238  53.1574 196.5673 0001458  88.6184 271.4986 15.34362873 35964
