OBJECT_NAME,OBJECT_ID,EPOCH,MEAN_MOTION,ECCENTRICITY,INCLINATION,RA_OF_ASC_NODE,ARG_OF_PERICENTER,MEAN_ANOMALY,EPHEMERIS_TYPE,CLASSIFICATION_TYPE,NORAD_CAT_ID,ELEMENT_SET_NO,REV_AT_EPOCH,BSTAR,MEAN_MOTION_DOT,MEAN_MOTION_DDOT
STARLINK-35750,2025-244D,2026-06-13T16:12:54.420768,15.34387339,.0001396,53.1603,143.4859,90.5199,269.5964,0,U,66209,999,3636,.79502E-3,.26569E-3,0
STARLINK-35740,2025-244E,2026-06-13T15:54:43.704576,15.34397589,.0001255,53.1567,143.4044,91.5943,268.5203,0,U,66210,999,3636,.56277E-3,.18684E-3,0
STARLINK-35723,2025-244F,2026-06-13T05:25:25.275936,15.34407928,.0000954,53.1584,145.6550,108.0555,252.0552,0,U,66211,999,3628,.74503872E-3,.24886E-3,0
STARLINK-35710,2025-244G,2026-06-13T05:34:02.904384,15.30205447,.00010857,53.1575,146.4005,86.5535,273.5590,0,U,66212,999,3628,.65501082E-3,.19094E-3,0
STARLINK-34204,2025-244H,2026-06-13T05:47:33.700128,15.30202111,.0001246,53.1561,145.7503,96.4803,263.6339,0,U,66213,999,3629,.46892E-3,.13555E-3,0
STARLINK-35714,2025-244J,2026-06-13T05:46:12.823680,15.30181322,.0001366,53.1569,146.4526,85.7637,274.3520,0,U,66214,999,3628,-.33214E-4,-.1342E-4,0
STARLINK-35712,2025-244K,2026-06-13T15:28:35.954112,15.30198697,.0001756,53.1584,143.9925,70.8146,289.3044,0,U,66215,999,3635,.54346E-3,.1577E-3,0
STARLINK-35709,2025-244L,2026-06-13T16:17:13.596576,15.30200270,.0001462,53.1572,144.2083,94.9812,265.1355,0,U,66216,999,3635,.50921E-3,.14752E-3,0
STARLINK-35700,2025-244M,2026-06-13T16:08:06.406368,15.30204464,.0001185,53.1582,144.1724,76.7088,283.4045,0,U,66217,999,3634,.41114E-3,.11839E-3,0
STARLINK-35722,2025-244N,2026-06-13T16:06:50.993856,15.34395695,.0001363,53.1582,143.4523,97.0624,263.0533,0,U,66218,999,3636,.82683E-3,.27659E-3,0
STARLINK-35737,2025-244P,2026-06-13T05:28:27.035616,15.34407938,.000118,53.1584,145.6641,97.6800,262.4337,0,U,66219,999,3629,.75225E-3,.25131E-3,0
STARLINK-35677,2025-244Q,2026-06-13T16:03:49.531392,15.34423632,.0001332,53.1596,143.4411,92.0588,268.0567,0,U,66220,999,3636,.88994E-3,.29834E-3,0
STARLINK-35704,2025-244R,2026-06-13T16:05:03.813792,15.30214889,.0001508,53.1588,144.1555,98.7204,261.3968,0,U,66221,999,3635,.66882E-3,.19511E-3,0
STARLINK-35666,2025-244S,2026-06-13T16:09:37.564416,15.30198645,.0001242,53.1581,144.1726,92.1279,267.9864,0,U,66222,999,3635,.65192E-3,.18997E-3,0
STARLINK-35664,2025-244T,2026-06-13T16:18:44.598240,15.30201775,.0001504,53.1580,144.2120,92.1921,267.9251,0,U,66223,999,3635,.58167E-3,.16908E-3,0
STARLINK-35733,2025-244U,2026-06-13T05:40:07.895136,15.30211434,.0001139,53.1572,146.4199,84.0292,276.0838,0,U,66224,999,3628,.58301E-3,.16953E-3,0
STARLINK-35734,2025-244V,2026-06-13T16:14:11.147424,15.30199241,.0001638,53.1577,144.1912,100.4702,259.6484,0,U,66225,999,3635,.72577E-3,.21197E-3,0
STARLINK-34466,2025-244W,2026-06-13T16:09:52.609248,15.34399416,.0001451,53.1599,143.4669,89.8567,270.2602,0,U,66226,999,3636,.80122E-3,.2679E-3,0
STARLINK-34882,2025-244X,2026-06-13T05:31:28.899840,15.34408867,.0001379,53.1576,145.6732,20.0064,340.0993,0,U,66227,999,3629,.98835E-3,.33174E-3,0
STARLINK-35731,2025-244Y,2026-06-13T15:57:45.421056,15.34405489,.0001447,53.1597,143.4137,91.0401,269.0767,0,U,66228,999,3636,.72916E-3,.24344E-3,0
STARLINK-35758,2025-244Z,2026-06-13T05:19:21.756576,15.34404675,.000109,53.1593,145.6224,72.3341,287.7781,0,U,66229,999,3629,.65674732E-3,.21881E-3,0
STARLINK-35736,2025-244AA,2026-06-13T16:03:32.666112,15.30232313,.0001443,53.1596,144.1467,55.2666,304.8471,0,U,66230,999,3635,.78631E-3,.23024E-3,0
STARLINK-35735,2025-244AB,2026-06-12T15:59:19.045824,15.30207398,.00016343,53.1557,148.5505,90.2946,269.8242,0,U,66231,999,3620,.83364682E-3,.24418E-3,0
STARLINK-35753,2025-244AC,2026-06-13T05:43:09.674688,15.30207396,.0001194,53.1564,146.4340,87.9556,272.1581,0,U,66232,999,3628,.45119E-3,.1303E-3,0
STARLINK-35626,2025-244AD,2026-06-13T05:38:37.628736,15.30220261,.0001815,53.1568,146.4114,84.0153,276.1054,0,U,66233,999,3628,.55687E-3,.1618E-3,0
STARLINK-35537,2025-245A,2026-06-13T19:35:49.729056,15.31714199,.0000965,53.1583,196.7172,55.4283,304.6809,0,U,66234,999,3598,.51651E-3,.15704E-3,0
STARLINK-35541,2025-245B,2026-06-13T19:06:36.393120,15.30202799,.0001452,53.1575,197.2904,66.8444,293.2710,0,U,66235,999,3592,.34873E-3,.9984E-4,0
STARLINK-35454,2025-245C,2026-06-13T13:40:31.598688,15.30189846,.0001419,53.1574,198.7262,99.7833,260.3328,0,U,66236,999,3577,.80573E-3,.23573E-3,0
STARLINK-35557,2025-245D,2026-06-13T13:30:10.896768,15.34377937,.0001398,53.1576,196.5528,89.2589,270.8574,0,U,66237,999,3596,.72259E-3,.24099E-3,0
STARLINK-35556,2025-245E,2026-06-13T13:33:15.453216,15.34362873,.0001458,53.1574,196.5673,88.6184,271.4986,0,U,66238,999,3596,.77101E-3,.25732E-3,0
